SPAWAR-CAL-O            
1 43766U 18099J   26068.73975788  .00021069  00000+0  69663-3 0  9999
2 43766  97.4452 132.0993 0007239 285.0670  74.9770 15.31356755398280
STARLINK-31296          
1 58879U 24020D   26068.88423204  .00036654  00000+0  12469-2 0  9995
2 58879  53.1600 295.7482 0001374  95.0661 265.0496 15.30115201118464
